start=new Date('2022-11-26T00:00:00.000Z').valueOf();
sats=[{"COUNTRY_CODE":"US","ELEMENT_SET_NO":"999","TLE_LINE2":"2 54097  53.2151 328.1507 0003779   5.7954  60.0433 15.73207318  1303","TLE_LINE1":"1 54097U 22136AY  22329.91667824  .00056303  00000-0  40266-3 0  9998","MEAN_ELEMENT_THEORY":"SGP4","FILE":"3670141","BSTAR":"0.00040266000000","RA_OF_ASC_NODE":"328.1507","APOAPSIS":"352.282","SEMIMAJOR_AXIS":"6727.874","DECAY_DATE":null,"GP_ID":"218822867","PERIAPSIS":"347.197","ECCENTRICITY":"0.00037790","MEAN_ANOMALY":"60.0433","INCLINATION":"53.2151","NORAD_CAT_ID":"54097","MEAN_MOTION":"15.73207318","PERIOD":"91.533","MEAN_MOTION_DOT":"0.00056303","LAUNCH_DATE":"2022-10-20","REF_FRAME":"TEME","MEAN_MOTION_DDOT":"0.0000000000000","OBJECT_NAME":"STARLINK-5197","RCS_SIZE":"LARGE","TIME_SYSTEM":"UTC","REV_AT_EPOCH":"130","CENTER_NAME":"EARTH","SITE":"AFETR","EPHEMERIS_TYPE":"0","OBJECT_ID":"2022-136AY","ARG_OF_PERICENTER":"5.7954","CLASSIFICATION_TYPE":"U","OBJECT_TYPE":"PAYLOAD","EPOCH":"2022-11-25T22:00:00.999936"},{"EPHEMERIS_TYPE":"0","SITE":"AFETR","OBJECT_ID":"2022-136AZ","ARG_OF_PERICENTER":"9.5887","CLASSIFICATION_TYPE":"U","OBJECT_TYPE":"PAYLOAD","EPOCH":"2022-11-25T22:00:00.999936","CENTER_NAME":"EARTH","RCS_SIZE":"LARGE","TIME_SYSTEM":"UTC","REV_AT_EPOCH":"130","PERIOD":"91.531","MEAN_MOTION_DOT":"-0.00004917","LAUNCH_DATE":"2022-10-20","REF_FRAME":"TEME","MEAN_MOTION_DDOT":"0.0000000000000","OBJECT_NAME":"STARLINK-5217","MEAN_ANOMALY":"37.0941","NORAD_CAT_ID":"54098","INCLINATION":"53.2146","MEAN_MOTION":"15.73242742","DECAY_DATE":null,"GP_ID":"218823042","PERIAPSIS":"347.345","ECCENTRICITY":"0.00034090","APOAPSIS":"351.932","SEMIMAJOR_AXIS":"6727.773","COUNTRY_CODE":"US","TLE_LINE2":"2 54098  53.2146 328.1959 0003409   9.5887  37.0941 15.73242742  1304","ELEMENT_SET_NO":"999","TLE_LINE1":"1 54098U 22136AZ  22329.91667824 -.00004917  00000-0 -30540-4 0  9990","FILE":"3670141","MEAN_ELEMENT_THEORY":"SGP4","BSTAR":"-0.00003054000000","RA_OF_ASC_NODE":"328.1959"},{"EPOCH":"2022-11-25T22:00:00.999936","OBJECT_TYPE":"PAYLOAD","OBJECT_ID":"2022-136BA","SITE":"AFETR","EPHEMERIS_TYPE":"0","CLASSIFICATION_TYPE":"U","ARG_OF_PERICENTER":"4.6824","CENTER_NAME":"EARTH","TIME_SYSTEM":"UTC","REV_AT_EPOCH":"130","RCS_SIZE":"LARGE","REF_FRAME":"TEME","OBJECT_NAME":"STARLINK-5198","MEAN_MOTION_DDOT":"0.0000000000000","PERIOD":"91.531","LAUNCH_DATE":"2022-10-20","MEAN_MOTION_DOT":"-0.00007024","MEAN_MOTION":"15.73239520","MEAN_ANOMALY":"43.7748","NORAD_CAT_ID":"54099","INCLINATION":"53.2146","PERIAPSIS":"346.950","ECCENTRICITY":"0.00040090","GP_ID":"218823578","DECAY_DATE":null,"APOAPSIS":"352.345","SEMIMAJOR_AXIS":"6727.783","FILE":"3670141","MEAN_ELEMENT_THEORY":"SGP4","RA_OF_ASC_NODE":"328.1906","BSTAR":"-0.00004553400000","COUNTRY_CODE":"US","TLE_LINE1":"1 54099U 22136BA  22329.91667824 -.00007024  00000-0 -45534-4 0  9992","TLE_LINE2":"2 54099  53.2146 328.1906 0004009   4.6824  43.7748 15.73239520  1300","ELEMENT_SET_NO":"999"},{"ARG_OF_PERICENTER":"9.6257","CLASSIFICATION_TYPE":"U","SITE":"AFETR","EPHEMERIS_TYPE":"0","OBJECT_ID":"2022-136BB","OBJECT_TYPE":"PAYLOAD","EPOCH":"2022-11-25T22:00:00.999936","CENTER_NAME":"EARTH","RCS_SIZE":"LARGE","REV_AT_EPOCH":"130","TIME_SYSTEM":"UTC","MEAN_MOTION_DOT":"0.00015781","LAUNCH_DATE":"2022-10-20","PERIOD":"91.532","OBJECT_NAME":"STARLINK-5185","MEAN_MOTION_DDOT":"0.0000000000000","REF_FRAME":"TEME","NORAD_CAT_ID":"54100","INCLINATION":"53.2144","MEAN_ANOMALY":"35.8635","MEAN_MOTION":"15.73226363","DECAY_DATE":null,"GP_ID":"218823744","ECCENTRICITY":"0.00032620","PERIAPSIS":"347.490","SEMIMAJOR_AXIS":"6727.820","APOAPSIS":"351.880","TLE_LINE2":"2 54100  53.2144 328.1962 0003262   9.6257  35.8635 15.73226363  1306","ELEMENT_SET_NO":"999","TLE_LINE1":"1 54100U 22136BB  22329.91667824  .00015781  00000-0  11651-3 0  9994","COUNTRY_CODE":"US","BSTAR":"0.00011651000000","RA_OF_ASC_NODE":"328.1962","FILE":"3670141","MEAN_ELEMENT_THEORY":"SGP4"},{"ECCENTRICITY":"0.00039910","PERIAPSIS":"347.026","DECAY_DATE":null,"GP_ID":"218823234","MEAN_MOTION":"15.73217102","NORAD_CAT_ID":"54101","INCLINATION":"53.2149","MEAN_ANOMALY":"45.1560","BSTAR":"0.00048667000000","RA_OF_ASC_NODE":"328.1921","MEAN_ELEMENT_THEORY":"SGP4","FILE":"3670141","TLE_LINE1":"1 54101U 22136BC  22329.91667824  .00068310  00000-0  48667-3 0  9998","TLE_LINE2":"2 54101  53.2149 328.1921 0003991   3.8972  45.1560 15.73217102  1308","ELEMENT_SET_NO":"999","COUNTRY_CODE":"US","SEMIMAJOR_AXIS":"6727.846","APOAPSIS":"352.396","CENTER_NAME":"EARTH","OBJECT_TYPE":"PAYLOAD","EPOCH":"2022-11-25T22:00:00.999936","ARG_OF_PERICENTER":"3.8972","CLASSIFICATION_TYPE":"U","EPHEMERIS_TYPE":"0","SITE":"AFETR","OBJECT_ID":"2022-136BC","MEAN_MOTION_DDOT":"0.0000000000000","OBJECT_NAME":"STARLINK-5204","REF_FRAME":"TEME","LAUNCH_DATE":"2022-10-20","MEAN_MOTION_DOT":"0.00068310","PERIOD":"91.532","REV_AT_EPOCH":"130","TIME_SYSTEM":"UTC","RCS_SIZE":"LARGE"},{"CENTER_NAME":"EARTH","SITE":"AFETR","EPHEMERIS_TYPE":"0","OBJECT_ID":"2022-136BD","ARG_OF_PERICENTER":"6.8536","CLASSIFICATION_TYPE":"U","OBJECT_TYPE":"PAYLOAD","EPOCH":"2022-11-25T22:00:00.999936","PERIOD":"91.531","MEAN_MOTION_DOT":"-0.00005135","LAUNCH_DATE":"2022-10-20","REF_FRAME":"TEME","MEAN_MOTION_DDOT":"0.0000000000000","OBJECT_NAME":"STARLINK-5179","RCS_SIZE":"LARGE","TIME_SYSTEM":"UTC","REV_AT_EPOCH":"130","DECAY_DATE":null,"GP_ID":"218823410","PERIAPSIS":"346.950","ECCENTRICITY":"0.00040130","MEAN_ANOMALY":"41.0048","INCLINATION":"53.2141","NORAD_CAT_ID":"54102","MEAN_MOTION":"15.73238525","COUNTRY_CODE":"US","ELEMENT_SET_NO":"999","TLE_LINE2":"2 54102  53.2141 328.1897 0004013   6.8536  41.0048 15.73238525  1306","TLE_LINE1":"1 54102U 22136BD  22329.91667824 -.00005135  00000-0 -32086-4 0  9996","MEAN_ELEMENT_THEORY":"SGP4","FILE":"3670141","BSTAR":"-0.00003208600000","RA_OF_ASC_NODE":"328.1897","APOAPSIS":"352.350","SEMIMAJOR_AXIS":"6727.785"},{"APOAPSIS":"351.953","SEMIMAJOR_AXIS":"6727.769","MEAN_ELEMENT_THEORY":"SGP4","FILE":"3670141","BSTAR":"-0.00004663200000","RA_OF_ASC_NODE":"328.1841","COUNTRY_CODE":"US","TLE_LINE2":"2 54103  53.2137 328.1841 0003447   7.9045  41.7510 15.73244405  1303","TLE_LINE1":"1 54103U 22136BE  22329.91667824 -.00007178  00000-0 -46632-4 0  9998","ELEMENT_SET_NO":"999","MEAN_MOTION":"15.73244405","MEAN_ANOMALY":"41.7510","NORAD_CAT_ID":"54103","INCLINATION":"53.2137","PERIAPSIS":"347.315","ECCENTRICITY":"0.00034470","DECAY_DATE":null,"GP_ID":"218823912","TIME_SYSTEM":"UTC","REV_AT_EPOCH":"130","RCS_SIZE":"LARGE","REF_FRAME":"TEME","OBJECT_NAME":"STARLINK-5200","MEAN_MOTION_DDOT":"0.0000000000000","PERIOD":"91.531","MEAN_MOTION_DOT":"-0.00007178","LAUNCH_DATE":"2022-10-20","OBJECT_TYPE":"PAYLOAD","EPOCH":"2022-11-25T22:00:00.999936","SITE":"AFETR","EPHEMERIS_TYPE":"0","OBJECT_ID":"2022-136BE","ARG_OF_PERICENTER":"7.9045","CLASSIFICATION_TYPE":"U","CENTER_NAME":"EARTH"},{"EPHEMERIS_TYPE":"0","SITE":"AFETR","OBJECT_ID":"2022-136BF","ARG_OF_PERICENTER":"6.0379","CLASSIFICATION_TYPE":"U","OBJECT_TYPE":"PAYLOAD","EPOCH":"2022-11-25T22:00:00.999936","CENTER_NAME":"EARTH","RCS_SIZE":"LARGE","TIME_SYSTEM":"UTC","REV_AT_EPOCH":"130","PERIOD":"91.534","MEAN_MOTION_DOT":"0.00101760","LAUNCH_DATE":"2022-10-20","REF_FRAME":"TEME","OBJECT_NAME":"STARLINK-5203","MEAN_MOTION_DDOT":"0.0000000000000","MEAN_ANOMALY":"44.2216","INCLINATION":"53.2144","NORAD_CAT_ID":"54104","MEAN_MOTION":"15.73184975","DECAY_DATE":null,"GP_ID":"218824078","PERIAPSIS":"347.414","ECCENTRICITY":"0.00035510","APOAPSIS":"352.192","SEMIMAJOR_AXIS":"6727.938","COUNTRY_CODE":"US","TLE_LINE2":"2 54104  53.2144 328.1869 0003551   6.0379  44.2216 15.73184975  1304","TLE_LINE1":"1 54104U 22136BF  22329.91667824  .00101760  00000-0  72101-3 0  9998","ELEMENT_SET_NO":"999","MEAN_ELEMENT_THEORY":"SGP4","FILE":"3670141","BSTAR":"0.00072101000000","RA_OF_ASC_NODE":"328.1869"},{"CENTER_NAME":"EARTH","ARG_OF_PERICENTER":"48.8410","CLASSIFICATION_TYPE":"U","SITE":"AFWTR","EPHEMERIS_TYPE":"0","OBJECT_ID":"2022-141A","OBJECT_TYPE":"PAYLOAD","EPOCH":"2022-11-25T22:00:00.999936","MEAN_MOTION_DOT":"-0.01197554","LAUNCH_DATE":"2022-10-28","PERIOD":"93.122","MEAN_MOTION_DDOT":"0.0000000000000","OBJECT_NAME":"STARLINK-5290","REF_FRAME":"TEME","RCS_SIZE":"LARGE","REV_AT_EPOCH":"130","TIME_SYSTEM":"UTC","DECAY_DATE":null,"GP_ID":"218823750","ECCENTRICITY":"0.00012510","PERIAPSIS":"426.528","NORAD_CAT_ID":"54157","INCLINATION":"53.2173","MEAN_ANOMALY":"327.8373","MEAN_MOTION":"15.46362532","TLE_LINE2":"2 54157  53.2173   2.0797 0001251  48.8410 327.8373 15.46362532  1308","TLE_LINE1":"1 54157U 22141A   22329.91667824 -.01197554  00000-0 -26201-1 0  9999","ELEMENT_SET_NO":"999","COUNTRY_CODE":"US","BSTAR":"-0.02620100000000","RA_OF_ASC_NODE":"2.0797","FILE":"3670141","MEAN_ELEMENT_THEORY":"SGP4","SEMIMAJOR_AXIS":"6805.514","APOAPSIS":"428.231"},{"DECAY_DATE":null,"GP_ID":"218823240","ECCENTRICITY":"0.00016740","PERIAPSIS":"428.002","NORAD_CAT_ID":"54158","INCLINATION":"53.2174","MEAN_ANOMALY":"336.6647","MEAN_MOTION":"15.45762081","TLE_LINE1":"1 54158U 22141B   22329.91667824 -.01201928  00000-0 -26856-1 0  9997","TLE_LINE2":"2 54158  53.2174   2.0975 0001674  31.4438 336.6647 15.45762081  1309","ELEMENT_SET_NO":"999","COUNTRY_CODE":"US","BSTAR":"-0.02685600000000","RA_OF_ASC_NODE":"2.0975","MEAN_ELEMENT_THEORY":"SGP4","FILE":"3670141","SEMIMAJOR_AXIS":"6807.277","APOAPSIS":"430.281","CENTER_NAME":"EARTH","ARG_OF_PERICENTER":"31.4438","CLASSIFICATION_TYPE":"U","SITE":"AFWTR","EPHEMERIS_TYPE":"0","OBJECT_ID":"2022-141B","OBJECT_TYPE":"PAYLOAD","EPOCH":"2022-11-25T22:00:00.999936","MEAN_MOTION_DOT":"-0.01201928","LAUNCH_DATE":"2022-10-28","PERIOD":"93.158","OBJECT_NAME":"STARLINK-5297","MEAN_MOTION_DDOT":"0.0000000000000","REF_FRAME":"TEME","RCS_SIZE":"LARGE","REV_AT_EPOCH":"130","TIME_SYSTEM":"UTC"}];
